{
  "norad_id": 58368,
  "name": "STARLINK-30889",
  "history": [
    {
      "epoch": "2026-03-28T10:40:14.583072Z",
      "apogee_km": 484.08611286773885,
      "perigee_km": 481.96889472515795,
      "latitude_deg": 4.111515813903186e-06,
      "longitude_deg": -101.06682496067054,
      "height_km": 482.8464530408552,
      "semi_major_axis_km": 6861.164503796448,
      "eccentricity": 0.00015429,
      "inclination_deg": 42.9998,
      "raan_deg": 244.8589,
      "arg_perigee_deg": 267.7175,
      "mean_anomaly_deg": 92.35,
      "mean_motion_rev_day": 15.27587211
    }
  ]
}